{"type":"FeatureCollection","metadata":{"status":"demonstrativo"},"features":[{"type":"Feature","properties":{"id":"obra-demo-1","nome":"Unidade de Saúde (demonstração)","tipo":"obra"},"geometry":{"type":"Point","coordinates":[-50.038,-8.016]}},{"type":"Feature","properties":{"id":"obra-demo-2","nome":"Praça Central (demonstração)","tipo":"obra"},"geometry":{"type":"Point","coordinates":[-50.038,-8.032]}},{"type":"Feature","properties":{"id":"obra-demo-3","nome":"Drenagem Sul (demonstração)","tipo":"obra"},"geometry":{"type":"Point","coordinates":[-50.021,-8.032]}}]}
