{
  "type": "FeatureCollection",
  "name": "zonas_demonstrativas_redencao",
  "metadata": {"status": "demonstrativo", "aviso": "Geometrias ilustrativas; substituir por exportação oficial do Plano Diretor em EPSG:4326."},
  "features": [
    {"type":"Feature","properties":{"id":"demo-zum-centro","sigla":"ZUM","nome":"Zona de Uso Misto — Centro (demonstração)","tipo":"ZUM","categoria":"Médio","macrozona":"Urbana","to_max":70,"ca_basico":1.5,"ca_maximo":3,"permeabilidade":20,"altura_max":18,"conformidade":84,"atividades_permitidas":["Residencial","Comércio local"],"atividades_condicionadas":["Serviços de impacto"],"atividades_proibidas":["Indústria pesada"],"fonte":"demonstrativa"},"geometry":{"type":"Polygon","coordinates":[[[-50.047,-8.040],[-50.030,-8.040],[-50.030,-8.024],[-50.047,-8.024],[-50.047,-8.040]]]}},
    {"type":"Feature","properties":{"id":"demo-zeis-norte","sigla":"ZEIS","nome":"ZEIS Norte (demonstração)","tipo":"ZEIS","categoria":"Alto","macrozona":"Urbana","to_max":65,"ca_basico":1.2,"ca_maximo":2,"permeabilidade":25,"altura_max":12,"conformidade":68,"atividades_permitidas":["Habitação social","Equipamento público"],"atividades_condicionadas":["Comércio vicinal"],"atividades_proibidas":["Uso industrial"],"fonte":"demonstrativa"},"geometry":{"type":"Polygon","coordinates":[[[-50.047,-8.024],[-50.030,-8.024],[-50.030,-8.008],[-50.047,-8.008],[-50.047,-8.024]]]}},
    {"type":"Feature","properties":{"id":"demo-zr-sul","sigla":"ZR","nome":"Zona Residencial Sul (demonstração)","tipo":"ZR","categoria":"Baixo","macrozona":"Urbana","to_max":60,"ca_basico":1,"ca_maximo":1.8,"permeabilidade":30,"altura_max":10,"conformidade":91,"atividades_permitidas":["Residencial"],"atividades_condicionadas":["Comércio local"],"atividades_proibidas":["Atividade de alto impacto"],"fonte":"demonstrativa"},"geometry":{"type":"Polygon","coordinates":[[[-50.030,-8.040],[-50.013,-8.040],[-50.013,-8.024],[-50.030,-8.024],[-50.030,-8.040]]]}},
    {"type":"Feature","properties":{"id":"demo-zpa-leste","sigla":"ZPA","nome":"Zona de Proteção Ambiental Leste (demonstração)","tipo":"ZPA","categoria":"Alto","macrozona":"Ambiental","to_max":15,"ca_basico":0.2,"ca_maximo":0.4,"permeabilidade":75,"altura_max":6,"conformidade":76,"atividades_permitidas":["Conservação","Pesquisa"],"atividades_condicionadas":["Ecoturismo"],"atividades_proibidas":["Parcelamento urbano"],"fonte":"demonstrativa"},"geometry":{"type":"Polygon","coordinates":[[[-50.030,-8.024],[-50.013,-8.024],[-50.013,-8.008],[-50.030,-8.008],[-50.030,-8.024]]]}}
  ]
}
