{
  "type": "FeatureCollection",
  "metadata": {
    "source": "Lei Complementar nº 128/2022 — Plano Diretor de Redenção-PA",
    "source_crs": "EPSG:31983",
    "crs": "EPSG:4326",
    "official_source": "https://redencao.pa.gov.br/publicacoes/legislacoes/lei/4165/lei-complementar-no-1282022",
    "ocr_review_required": false,
    "errors": [],
    "note": "ZUPA não é um anel único: o Memorial 14 a define por faixas ambientais de 15 a 100 m."
  },
  "features": [
    {
      "type": "Feature",
      "properties": {
        "id": "zum-01",
        "sigla": "ZUM",
        "nome": "Zona de Uso Misto — Área 01",
        "memorial": 6,
        "vertex_count": 140,
        "source_crs": "EPSG:31983",
        "source": "Lei Complementar nº 128/2022 — Anexo II-B"
      },
      "geometry": {
        "type": "Polygon",
        "coordinates": [
          [
            [
              -44.057241767271314,
              -7.94514945610462
            ],
            [
              -44.055332612623175,
              -7.94539926970626
            ],
            [
              -44.05289989609843,
              -7.948344644767243
            ],
            [
              -44.05088135090408,
              -7.949250446378541
            ],
            [
              -44.04974845662008,
              -7.948682764834982
            ],
            [
              -44.048519208434506,
              -7.948868255887506
            ],
            [
              -44.04766560473151,
              -7.9511132828413755
            ],
            [
              -44.04569709369946,
              -7.952263911333569
            ],
            [
              -44.04399284133614,
              -7.953260026831927
            ],
            [
              -44.04569082347559,
              -7.954975938578995
            ],
            [
              -44.04689468733681,
              -7.957540157180708
            ],
            [
              -44.04860667841996,
              -7.958347676273934
            ],
            [
              -44.048264894565996,
              -7.959067818968793
            ],
            [
              -44.046737997282165,
              -7.959900375358291
            ],
            [
              -44.044909371546545,
              -7.961309713027409
            ],
            [
              -44.042185060734454,
              -7.962307898255627
            ],
            [
              -44.039887961211484,
              -7.963149500608128
            ],
            [
              -44.03745419646123,
              -7.964041148923705
            ],
            [
              -44.03537656607767,
              -7.963748622229101
            ],
            [
              -44.033358436054094,
              -7.964547421761543
            ],
            [
              -44.031888059065544,
              -7.965129431028739
            ],
            [
              -44.030183208968936,
              -7.964339135051836
            ],
            [
              -44.02816592523142,
              -7.964736251943476
            ],
            [
              -44.02705454585203,
              -7.9657381069556665
            ],
            [
              -44.024177986742075,
              -7.967137555607695
            ],
            [
              -44.0228390680075,
              -7.967789028325385
            ],
            [
              -44.02215663387077,
              -7.969242193769457
            ],
            [
              -44.02189994941952,
              -7.9712003103158455
            ],
            [
              -44.01917385782479,
              -7.972901518381337
            ],
            [
              -44.01715046887428,
              -7.974164098135691
            ],
            [
              -44.01463560383392,
              -7.973493460498658
            ],
            [
              -44.01305725629511,
              -7.97307249153945
            ],
            [
              -44.01019702215244,
              -7.974587726705015
            ],
            [
              -44.00620460080172,
              -7.97666422359164
            ],
            [
              -44.00072118107258,
              -7.978648809325926
            ],
            [
              -43.97778197195144,
              -7.986949892851339
            ],
            [
              -44.01187123090781,
              -8.012843495680919
            ],
            [
              -44.01457792994911,
              -8.023362649926675
            ],
            [
              -44.01392643390017,
              -8.023515204354602
            ],
            [
              -44.01427870096312,
              -8.024219871175728
            ],
            [
              -44.01392768696774,
              -8.024350534059817
            ],
            [
              -44.011450513068866,
              -8.025272442725424
            ],
            [
              -44.01122658688712,
              -8.02481643705543
            ],
            [
              -44.009775403884134,
              -8.025425786809908
            ],
            [
              -44.00952688157052,
              -8.025160554641719
            ],
            [
              -44.00321224021954,
              -8.022244109734336
            ],
            [
              -44.00131578081072,
              -8.027066683663655
            ],
            [
              -44.001206949290264,
              -8.027379168458136
            ],
            [
              -44.00230093804264,
              -8.028768752135218
            ],
            [
              -44.00465992035433,
              -8.028479080282654
            ],
            [
              -44.00913887909035,
              -8.028647439275401
            ],
            [
              -44.0095678166906,
              -8.034555531609826
            ],
            [
              -43.99874057045415,
              -8.038580572051925
            ],
            [
              -43.998024455929226,
              -8.037136277174811
            ],
            [
              -43.997399792136356,
              -8.037326219889549
            ],
            [
              -43.9955227004814,
              -8.03480165398174
            ],
            [
              -43.99488807678198,
              -8.034762841235416
            ],
            [
              -43.995764938013636,
              -8.03795315239744
            ],
            [
              -43.99546850280042,
              -8.038649373563969
            ],
            [
              -43.99423637276878,
              -8.03897032329853
            ],
            [
              -43.99458660443884,
              -8.040712005768949
            ],
            [
              -43.995251785608815,
              -8.042053710454303
            ],
            [
              -43.995332812726694,
              -8.04308756910585
            ],
            [
              -43.999467579964765,
              -8.043318881428887
            ],
            [
              -43.99976411324793,
              -8.045913390037615
            ],
            [
              -43.99007703697795,
              -8.047185350005083
            ],
            [
              -43.99052241552241,
              -8.045747697747688
            ],
            [
              -43.99050195152136,
              -8.044409832892237
            ],
            [
              -43.98928892815259,
              -8.044409020392955
            ],
            [
              -43.982815368978514,
              -8.042048523228766
            ],
            [
              -43.97625935116747,
              -8.043113737898208
            ],
            [
              -43.97592049161415,
              -8.043236255342006
            ],
            [
              -43.97582605116304,
              -8.043300504598674
            ],
            [
              -43.97563796483162,
              -8.043546217027677
            ],
            [
              -43.9754972440841,
              -8.043864491007515
            ],
            [
              -43.9751449491016,
              -8.046878836190627
            ],
            [
              -43.974856558382236,
              -8.048762280456842
            ],
            [
              -43.97404531049178,
              -8.050681136531795
            ],
            [
              -43.97285589519862,
              -8.05236199691155
            ],
            [
              -43.97265737332371,
              -8.052785217177057
            ],
            [
              -43.971547122643976,
              -8.055704862677334
            ],
            [
              -43.97078700047451,
              -8.057703786265805
            ],
            [
              -43.97010330169026,
              -8.0589031282533
            ],
            [
              -43.968431918837936,
              -8.06036235407659
            ],
            [
              -43.965361023852296,
              -8.06394512305593
            ],
            [
              -43.9701134573347,
              -8.070310040702289
            ],
            [
              -43.97142998597754,
              -8.077024171751114
            ],
            [
              -43.98460838070321,
              -8.075542648571007
            ],
            [
              -43.9853343568638,
              -8.082376127353296
            ],
            [
              -44.00277264804409,
              -8.081584614507085
            ],
            [
              -44.002785839384565,
              -8.081312597334863
            ],
            [
              -44.0057506389647,
              -8.081048852496746
            ],
            [
              -44.01511144524771,
              -8.079262568963685
            ],
            [
              -44.018345077873875,
              -8.075674173319223
            ],
            [
              -44.02512876235466,
              -8.075510048639062
            ],
            [
              -44.03016771953931,
              -8.07549615562408
            ],
            [
              -44.03026045337856,
              -8.074740274568164
            ],
            [
              -44.032772038334436,
              -8.074731837910743
            ],
            [
              -44.03279493686985,
              -8.075176960797231
            ],
            [
              -44.03604594258233,
              -8.0751331697559
            ],
            [
              -44.037381106182224,
              -8.07476151740838
            ],
            [
              -44.037435878714426,
              -8.073820226395746
            ],
            [
              -44.03784130588563,
              -8.073836464525952
            ],
            [
              -44.038983662788375,
              -8.074023832827326
            ],
            [
              -44.03904448304523,
              -8.07436150858358
            ],
            [
              -44.0441650931193,
              -8.073818541341534
            ],
            [
              -44.046388308815274,
              -8.069425659699275
            ],
            [
              -44.04703486409017,
              -8.0697072672079
            ],
            [
              -44.04909990121338,
              -8.067739139936425
            ],
            [
              -44.05002732016298,
              -8.067593507754497
            ],
            [
              -44.05094308033294,
              -8.067621768739992
            ],
            [
              -44.05252167208876,
              -8.067217343290727
            ],
            [
              -44.05251169288428,
              -8.060003562563313
            ],
            [
              -44.052346885270985,
              -8.059463054178073
            ],
            [
              -44.05190273354015,
              -8.057726329849153
            ],
            [
              -44.05139725241183,
              -8.054815328478067
            ],
            [
              -44.05086994542855,
              -8.048886083499847
            ],
            [
              -44.052529737226656,
              -8.048573284409969
            ],
            [
              -44.052475273169726,
              -8.047213885350951
            ],
            [
              -44.05631398634953,
              -8.048390531717619
            ],
            [
              -44.05714601464725,
              -8.045760176101457
            ],
            [
              -44.05371993087612,
              -8.04473923943442
            ],
            [
              -44.054312758967995,
              -8.042269780708095
            ],
            [
              -44.04788870471043,
              -8.039726782783445
            ],
            [
              -44.05522206370699,
              -8.026741006497637
            ],
            [
              -44.05519686745641,
              -8.026689124525255
            ],
            [
              -44.05525367943056,
              -8.026685004074984
            ],
            [
              -44.05588280213598,
              -8.025571007271989
            ],
            [
              -44.05891919548082,
              -8.025369848665665
            ],
            [
              -44.059353931745704,
              -8.026392222144269
            ],
            [
              -44.061620142071206,
              -8.026230344925695
            ],
            [
              -44.06008440134082,
              -8.021406284581664
            ],
            [
              -44.06579977815011,
              -8.010434430821045
            ],
            [
              -44.06776764534052,
              -7.996423509669188
            ],
            [
              -44.070228117239544,
              -7.981510848822216
            ],
            [
              -44.07031895480642,
              -7.976483988527288
            ],
            [
              -44.063019637741874,
              -7.9508509066466555
            ],
            [
              -44.06300192716024,
              -7.948420544664518
            ],
            [
              -44.060779301488196,
              -7.948436600817196
            ],
            [
              -44.05870127853242,
              -7.946505623923033
            ],
            [
              -44.057241767271314,
              -7.94514945610462
            ]
          ]
        ]
      }
    },
    {
      "type": "Feature",
      "properties": {
        "id": "zum-02",
        "sigla": "ZUM",
        "nome": "Zona de Uso Misto — Área 02",
        "memorial": 7,
        "vertex_count": 7,
        "source_crs": "EPSG:31983",
        "source": "Lei Complementar nº 128/2022 — Anexo II-B"
      },
      "geometry": {
        "type": "Polygon",
        "coordinates": [
          [
            [
              -44.05618330398778,
              -8.028726638617874
            ],
            [
              -44.05048912870453,
              -8.038809914969612
            ],
            [
              -44.05427102793412,
              -8.040306971552383
            ],
            [
              -44.058820686360306,
              -8.038279451800745
            ],
            [
              -44.05798850625174,
              -8.036859209777543
            ],
            [
              -44.05785512431483,
              -8.036659295220685
            ],
            [
              -44.05774583392862,
              -8.031954442223777
            ],
            [
              -44.05618330398778,
              -8.028726638617874
            ]
          ]
        ]
      }
    },
    {
      "type": "Feature",
      "properties": {
        "id": "zum-03",
        "sigla": "ZUM",
        "nome": "Zona de Uso Misto — Área 03",
        "memorial": 8,
        "vertex_count": 4,
        "source_crs": "EPSG:31983",
        "source": "Lei Complementar nº 128/2022 — Anexo II-B"
      },
      "geometry": {
        "type": "Polygon",
        "coordinates": [
          [
            [
              -43.9797923387752,
              -8.03488351454384
            ],
            [
              -43.97686083518042,
              -8.036874073323268
            ],
            [
              -43.9789096155906,
              -8.038875979220913
            ],
            [
              -43.98287601978845,
              -8.038584923780613
            ],
            [
              -43.9797923387752,
              -8.03488351454384
            ]
          ]
        ]
      }
    },
    {
      "type": "Feature",
      "properties": {
        "id": "zir-pli",
        "sigla": "ZIR",
        "nome": "ZIR — Parque Logístico Industrial",
        "memorial": 9,
        "vertex_count": 11,
        "source_crs": "EPSG:31983",
        "source": "Lei Complementar nº 128/2022 — Anexo II-B"
      },
      "geometry": {
        "type": "Polygon",
        "coordinates": [
          [
            [
              -44.05891919548082,
              -8.025369848665665
            ],
            [
              -44.05588280213598,
              -8.025571007271989
            ],
            [
              -44.04788870471043,
              -8.039726782783445
            ],
            [
              -44.054312758967995,
              -8.042269780708095
            ],
            [
              -44.0606489831665,
              -8.03944610569784
            ],
            [
              -44.0591809652489,
              -8.038894207558785
            ],
            [
              -44.058820686360306,
              -8.038279451800745
            ],
            [
              -44.05427102793412,
              -8.040306971552383
            ],
            [
              -44.05048912870453,
              -8.038809914969612
            ],
            [
              -44.0574174961142,
              -8.026540913630884
            ],
            [
              -44.05936196377069,
              -8.026411233660856
            ],
            [
              -44.05891919548082,
              -8.025369848665665
            ]
          ]
        ]
      }
    },
    {
      "type": "Feature",
      "properties": {
        "id": "zir-mil-01",
        "sigla": "ZIR",
        "nome": "ZIR — Micro Industrial Leste — Área 01",
        "memorial": 10,
        "vertex_count": 78,
        "source_crs": "EPSG:31983",
        "source": "Lei Complementar nº 128/2022 — Anexo II-B"
      },
      "geometry": {
        "type": "Polygon",
        "coordinates": [
          [
            [
              -43.98287599252171,
              -8.03858494180146
            ],
            [
              -43.978909588301086,
              -8.038876006285562
            ],
            [
              -43.97999496786471,
              -8.040674055514495
            ],
            [
              -43.97579980762598,
              -8.041355678263619
            ],
            [
              -43.97508712431111,
              -8.04161346789161
            ],
            [
              -43.974561387541414,
              -8.041970484740233
            ],
            [
              -43.974064223533446,
              -8.042620059401965
            ],
            [
              -43.97372619961791,
              -8.043384529555247
            ],
            [
              -43.973153174602665,
              -8.048287457328398
            ],
            [
              -43.97249725161511,
              -8.048052929982417
            ],
            [
              -43.972266808687785,
              -8.047640935916082
            ],
            [
              -43.972111706956156,
              -8.047110742782994
            ],
            [
              -43.9715519909999,
              -8.046364828940115
            ],
            [
              -43.97133647152777,
              -8.047772006918244
            ],
            [
              -43.97085292883474,
              -8.04891587136787
            ],
            [
              -43.96970430550507,
              -8.050539122573381
            ],
            [
              -43.96931163722146,
              -8.051375983607317
            ],
            [
              -43.96815304412284,
              -8.054422746815918
            ],
            [
              -43.967492391583356,
              -8.056159995494884
            ],
            [
              -43.96725030182222,
              -8.056584639963642
            ],
            [
              -43.9658426612615,
              -8.057813533046962
            ],
            [
              -43.9631385559826,
              -8.060968430058482
            ],
            [
              -43.9560038080703,
              -8.051412346845705
            ],
            [
              -43.94745084707804,
              -8.05240858901295
            ],
            [
              -43.95151887360117,
              -8.073130266965688
            ],
            [
              -43.93981884529064,
              -8.076031659463565
            ],
            [
              -43.93966972398914,
              -8.076075860088785
            ],
            [
              -43.93217523947528,
              -8.077906139630496
            ],
            [
              -43.930428070452415,
              -8.087491916729093
            ],
            [
              -43.93764778834237,
              -8.09328055911723
            ],
            [
              -43.937853315899126,
              -8.090204682993445
            ],
            [
              -43.938089674448136,
              -8.089597630323649
            ],
            [
              -43.93839392239048,
              -8.089715269762223
            ],
            [
              -43.94271475055838,
              -8.102500253893675
            ],
            [
              -43.94704063703779,
              -8.102055173119183
            ],
            [
              -43.9559053524775,
              -8.102660488450093
            ],
            [
              -43.95456253205962,
              -8.0934927979806
            ],
            [
              -43.95419331127744,
              -8.086223052815777
            ],
            [
              -43.95599635626378,
              -8.085820589577915
            ],
            [
              -43.95783885108266,
              -8.085851429459371
            ],
            [
              -43.96049887949138,
              -8.08550385696689
            ],
            [
              -43.972761365762835,
              -8.084157262356316
            ],
            [
              -43.97169913313221,
              -8.078498586251216
            ],
            [
              -43.97807393370109,
              -8.081775603072778
            ],
            [
              -43.98066695558691,
              -8.082804153052747
            ],
            [
              -43.9835172587053,
              -8.0824586184991
            ],
            [
              -43.9853343568638,
              -8.082376127353296
            ],
            [
              -43.98460838070321,
              -8.075542648571007
            ],
            [
              -43.97142998597754,
              -8.077024171751114
            ],
            [
              -43.9701134573347,
              -8.070310040702289
            ],
            [
              -43.965361023852296,
              -8.06394512305593
            ],
            [
              -43.968431918837936,
              -8.06036235407659
            ],
            [
              -43.97010330169026,
              -8.0589031282533
            ],
            [
              -43.97078700047451,
              -8.057703786265805
            ],
            [
              -43.971547122643976,
              -8.055704862677334
            ],
            [
              -43.97265737332371,
              -8.052785217177057
            ],
            [
              -43.97285589519862,
              -8.05236199691155
            ],
            [
              -43.97404531049178,
              -8.050681136531795
            ],
            [
              -43.974856558382236,
              -8.048762280456842
            ],
            [
              -43.9751449491016,
              -8.046878836190627
            ],
            [
              -43.9754972440841,
              -8.043864491007515
            ],
            [
              -43.97563796483162,
              -8.043546217027677
            ],
            [
              -43.97582605116304,
              -8.043300504598674
            ],
            [
              -43.97592049161415,
              -8.043236255342006
            ],
            [
              -43.97625935116747,
              -8.043113737898208
            ],
            [
              -43.982815368978514,
              -8.042048523228766
            ],
            [
              -43.98928892815259,
              -8.044409020392955
            ],
            [
              -43.99050195152136,
              -8.044409832892237
            ],
            [
              -43.99052241552241,
              -8.045747697747688
            ],
            [
              -43.99007703697795,
              -8.047185350005083
            ],
            [
              -43.99976411324793,
              -8.045913390037615
            ],
            [
              -43.999467579964765,
              -8.043318881428887
            ],
            [
              -43.995332812726694,
              -8.04308756910585
            ],
            [
              -43.995251785608815,
              -8.042053710454303
            ],
            [
              -43.99458660443884,
              -8.040712005768949
            ],
            [
              -43.99423637276878,
              -8.03897032329853
            ],
            [
              -43.98628387622332,
              -8.041041978551476
            ],
            [
              -43.983645495485234,
              -8.040248890587348
            ],
            [
              -43.98287599252171,
              -8.03858494180146
            ]
          ]
        ]
      }
    },
    {
      "type": "Feature",
      "properties": {
        "id": "zir-mil-02",
        "sigla": "ZIR",
        "nome": "ZIR — Micro Industrial Leste — Área 02",
        "memorial": 11,
        "vertex_count": 5,
        "source_crs": "EPSG:31983",
        "source": "Lei Complementar nº 128/2022 — Anexo II-B"
      },
      "geometry": {
        "type": "Polygon",
        "coordinates": [
          [
            [
              -44.02814275526679,
              -8.056608460055473
            ],
            [
              -44.024719029678465,
              -8.0575645416949
            ],
            [
              -44.02477092111047,
              -8.05954146925827
            ],
            [
              -44.02486706020599,
              -8.06426090233367
            ],
            [
              -44.028366778790634,
              -8.062172392711268
            ],
            [
              -44.02814275526679,
              -8.056608460055473
            ]
          ]
        ]
      }
    },
    {
      "type": "Feature",
      "properties": {
        "id": "zor-zacr",
        "sigla": "ZOR",
        "nome": "ZOR — Zona de Abastecimento e Chácaras de Recreio",
        "memorial": 12,
        "vertex_count": 57,
        "source_crs": "EPSG:31983",
        "source": "Lei Complementar nº 128/2022 — Anexo II-B"
      },
      "geometry": {
        "type": "Polygon",
        "coordinates": [
          [
            [
              -44.02645949775835,
              -7.996256614370621
            ],
            [
              -44.025768846096454,
              -7.996335326787156
            ],
            [
              -44.02576868462999,
              -7.999423155396096
            ],
            [
              -44.02547400320264,
              -8.000856703315458
            ],
            [
              -44.024344884014425,
              -8.00657873370126
            ],
            [
              -44.02644193799983,
              -8.007234803128595
            ],
            [
              -44.0271014700315,
              -8.013071832799573
            ],
            [
              -44.02706109582877,
              -8.013299843476691
            ],
            [
              -44.02738179538687,
              -8.013599396255731
            ],
            [
              -44.030553396926244,
              -8.015167730656854
            ],
            [
              -44.03092960115468,
              -8.014701395997298
            ],
            [
              -44.03071900138008,
              -8.015262316436448
            ],
            [
              -44.0311820457135,
              -8.015468393995306
            ],
            [
              -44.0320237774168,
              -8.014038405859466
            ],
            [
              -44.03277045665943,
              -8.012854893670614
            ],
            [
              -44.03401014079801,
              -8.013109955105186
            ],
            [
              -44.03334566344053,
              -8.014715570298108
            ],
            [
              -44.03248651796666,
              -8.015628864989937
            ],
            [
              -44.03240491138686,
              -8.016066173306927
            ],
            [
              -44.03184137383411,
              -8.016260062059999
            ],
            [
              -44.031968278461285,
              -8.016435991365043
            ],
            [
              -44.03153453135122,
              -8.01652141773922
            ],
            [
              -44.03138284933585,
              -8.016800937021225
            ],
            [
              -44.03087658747039,
              -8.017088757268473
            ],
            [
              -44.03103263854998,
              -8.017321237000717
            ],
            [
              -44.0308960323351,
              -8.017560218762192
            ],
            [
              -44.030863476260585,
              -8.018614281817905
            ],
            [
              -44.0306916633027,
              -8.019378400821866
            ],
            [
              -44.03069921290128,
              -8.019569850093214
            ],
            [
              -44.031278770413685,
              -8.020135125015294
            ],
            [
              -44.03097387241484,
              -8.020543309480288
            ],
            [
              -44.03105026950424,
              -8.020663497920237
            ],
            [
              -44.03281120358646,
              -8.01972459634348
            ],
            [
              -44.03394979822223,
              -8.019034700442862
            ],
            [
              -44.036475795589276,
              -8.016605299683675
            ],
            [
              -44.03506580134689,
              -8.016871810560279
            ],
            [
              -44.03555679346942,
              -8.014548075468884
            ],
            [
              -44.03594859726147,
              -8.014564095924163
            ],
            [
              -44.040543322000985,
              -8.013990914232169
            ],
            [
              -44.04164795108826,
              -8.010800240144844
            ],
            [
              -44.03904114179491,
              -8.008782980217635
            ],
            [
              -44.038614154658795,
              -8.007208527180305
            ],
            [
              -44.04015780161523,
              -8.006457489909664
            ],
            [
              -44.04024422117129,
              -8.006719089950161
            ],
            [
              -44.04144728669865,
              -8.007112402399585
            ],
            [
              -44.04190624375643,
              -8.007793113377753
            ],
            [
              -44.04190510359676,
              -8.008443967618676
            ],
            [
              -44.0424146940348,
              -8.0091473524011
            ],
            [
              -44.04268041459127,
              -8.009382398145613
            ],
            [
              -44.042892198999255,
              -8.008834197302447
            ],
            [
              -44.04369379334853,
              -8.008538398356794
            ],
            [
              -44.046359670373484,
              -8.006573147989496
            ],
            [
              -44.04702282270286,
              -8.0056617352767
            ],
            [
              -44.049545226597814,
              -8.004995729229513
            ],
            [
              -44.049443908146294,
              -8.003533838869899
            ],
            [
              -44.03531234343208,
              -8.0034684414052
            ],
            [
              -44.03328372021684,
              -7.9985605321433555
            ],
            [
              -44.02645949775835,
              -7.996256614370621
            ]
          ]
        ]
      }
    },
    {
      "type": "Feature",
      "properties": {
        "id": "zor-zpa",
        "sigla": "ZOR",
        "nome": "ZOR — Zona de Proteção do Aeródromo",
        "memorial": 13,
        "vertex_count": 74,
        "source_crs": "EPSG:31983",
        "source": "Lei Complementar nº 128/2022 — Anexo II-B"
      },
      "geometry": {
        "type": "Polygon",
        "coordinates": [
          [
            [
              -43.964590927870915,
              -7.984880162808413
            ],
            [
              -43.96258871626434,
              -7.985833462584057
            ],
            [
              -43.9632232792347,
              -7.987984932778046
            ],
            [
              -43.95590265844563,
              -7.990587135542933
            ],
            [
              -43.95610264543604,
              -7.993684161065974
            ],
            [
              -43.95290746174413,
              -7.995672290499742
            ],
            [
              -43.9521112990992,
              -8.001931767292879
            ],
            [
              -43.95307793696298,
              -8.00225374737546
            ],
            [
              -43.948812418624925,
              -8.007847162319855
            ],
            [
              -43.9475132684704,
              -8.008504067491588
            ],
            [
              -43.9448167878089,
              -8.01129658872553
            ],
            [
              -43.94760558828312,
              -8.01611579424615
            ],
            [
              -43.938793887606025,
              -8.020784707750954
            ],
            [
              -43.94057693346592,
              -8.029042533200496
            ],
            [
              -43.937792744903,
              -8.030943647637708
            ],
            [
              -43.94049288160484,
              -8.034933968774293
            ],
            [
              -43.943340412011544,
              -8.033914705570634
            ],
            [
              -43.94713301705026,
              -8.045224080364
            ],
            [
              -43.9517710660469,
              -8.044850214760144
            ],
            [
              -43.95217001450609,
              -8.046277211433026
            ],
            [
              -43.9560038080703,
              -8.051412346845705
            ],
            [
              -43.9631385559826,
              -8.060968430058482
            ],
            [
              -43.9658426612615,
              -8.057813533046962
            ],
            [
              -43.96725030182222,
              -8.056584639963642
            ],
            [
              -43.967492391583356,
              -8.056159995494884
            ],
            [
              -43.96815304412284,
              -8.054422746815918
            ],
            [
              -43.96931163722146,
              -8.051375983607317
            ],
            [
              -43.96970430550507,
              -8.050539122573381
            ],
            [
              -43.97085292883474,
              -8.04891587136787
            ],
            [
              -43.97133647152777,
              -8.047772006918244
            ],
            [
              -43.9715519909999,
              -8.046364828940115
            ],
            [
              -43.972111706956156,
              -8.047110742782994
            ],
            [
              -43.972266808687785,
              -8.047640935916082
            ],
            [
              -43.97249725161511,
              -8.048052929982417
            ],
            [
              -43.973153174602665,
              -8.048287457328398
            ],
            [
              -43.97372619961791,
              -8.043384529555247
            ],
            [
              -43.974064223533446,
              -8.042620059401965
            ],
            [
              -43.974561387541414,
              -8.041970484740233
            ],
            [
              -43.97508712431111,
              -8.04161346789161
            ],
            [
              -43.97579980762598,
              -8.041355678263619
            ],
            [
              -43.97999496786471,
              -8.040674055514495
            ],
            [
              -43.978909588301086,
              -8.038876006285562
            ],
            [
              -43.97686080800422,
              -8.036874055167345
            ],
            [
              -43.97979229347394,
              -8.034883487298988
            ],
            [
              -43.98287599252171,
              -8.03858494180146
            ],
            [
              -43.983645495485234,
              -8.040248890587348
            ],
            [
              -43.98628387622332,
              -8.041041978551476
            ],
            [
              -43.99423637276878,
              -8.03897032329853
            ],
            [
              -43.99546850280042,
              -8.038649373563969
            ],
            [
              -43.995764938013636,
              -8.03795315239744
            ],
            [
              -43.99488807678198,
              -8.034762841235416
            ],
            [
              -43.9955227004814,
              -8.03480165398174
            ],
            [
              -43.997399792136356,
              -8.037326219889549
            ],
            [
              -43.998024455929226,
              -8.037136277174811
            ],
            [
              -43.99874057045415,
              -8.038580572051925
            ],
            [
              -44.0095678166906,
              -8.034555531609826
            ],
            [
              -44.00913887909035,
              -8.028647439275401
            ],
            [
              -44.00465992035433,
              -8.028479080282654
            ],
            [
              -44.00230093804264,
              -8.028768752135218
            ],
            [
              -44.001206949290264,
              -8.027379168458136
            ],
            [
              -44.00131578081072,
              -8.027066683663655
            ],
            [
              -44.00321224021954,
              -8.022244109734336
            ],
            [
              -44.00952688157052,
              -8.025160554641719
            ],
            [
              -44.009775403884134,
              -8.025425786809908
            ],
            [
              -44.01122658688712,
              -8.02481643705543
            ],
            [
              -44.011450513068866,
              -8.025272442725424
            ],
            [
              -44.01392768696774,
              -8.024350534059817
            ],
            [
              -44.01427870096312,
              -8.024219871175728
            ],
            [
              -44.01392643390017,
              -8.023515204354602
            ],
            [
              -44.01457792994911,
              -8.023362649926675
            ],
            [
              -44.01187123090781,
              -8.012843495680919
            ],
            [
              -43.97778197195144,
              -7.986949892851339
            ],
            [
              -43.972784881055674,
              -7.988757919761803
            ],
            [
              -43.969248875779066,
              -7.989902249146327
            ],
            [
              -43.964590927870915,
              -7.984880162808413
            ]
          ]
        ]
      }
    }
  ]
}